[{"OBJECT_NAME":"COSMOS 2251 DEB","OBJECT_ID":"1993-036ADP","EPOCH":"2026-02-27T17:41:04.748928","MEAN_MOTION":14.62624432,"ECCENTRICITY":0.00268931,"INCLINATION":74.071,"RA_OF_ASC_NODE":166.5626,"ARG_OF_PERICENTER":113.3417,"MEAN_ANOMALY":37.304,"EPHEMERIS_TYPE":0,"CLASSIFICATION_TYPE":"U","NORAD_CAT_ID":34918,"ELEMENT_SET_NO":999,"REV_AT_EPOCH":66461,"BSTAR":0.0014930561,"MEAN_MOTION_DOT":7.608e-5,"MEAN_MOTION_DDOT":0},{"OBJECT_NAME":"COSMOS 2251 DEB","OBJECT_ID":"1993-036ADV","EPOCH":"2026-03-04T10:57:04.071168","MEAN_MOTION":14.60816772,"ECCENTRICITY":0.00538974,"INCLINATION":74.0396,"RA_OF_ASC_NODE":293.4452,"ARG_OF_PERICENTER":355.4787,"MEAN_ANOMALY":63.9305,"EPHEMERIS_TYPE":0,"CLASSIFICATION_TYPE":"U","NORAD_CAT_ID":34924,"ELEMENT_SET_NO":999,"REV_AT_EPOCH":88916,"BSTAR":0.0010047421,"MEAN_MOTION_DOT":4.983e-5,"MEAN_MOTION_DDOT":0},{"OBJECT_NAME":"COSMOS 2251 DEB","OBJECT_ID":"1993-036ADX","EPOCH":"2026-03-04T11:15:53.189568","MEAN_MOTION":14.14407816,"ECCENTRICITY":0.02225196,"INCLINATION":73.7461,"RA_OF_ASC_NODE":84.5569,"ARG_OF_PERICENTER":278.7571,"MEAN_ANOMALY":78.8427,"EPHEMERIS_TYPE":0,"CLASSIFICATION_TYPE":"U","NORAD_CAT_ID":34944,"ELEMENT_SET_NO":999,"REV_AT_EPOCH":65238,"BSTAR":0.00078099992,"MEAN_MOTION_DOT":1.867e-5,"MEAN_MOTION_DDOT":0},{"OBJECT_NAME":"COSMOS 2251 DEB","OBJECT_ID":"1993-036ADZ","EPOCH":"2026-02-28T01:28:23.728800","MEAN_MOTION":14.62511817,"ECCENTRICITY":0.00517186,"INCLINATION":74.0228,"RA_OF_ASC_NODE":193.9066,"ARG_OF_PERICENTER":310.6161,"MEAN_ANOMALY":49.0512,"EPHEMERIS_TYPE":0,"CLASSIFICATION_TYPE":"U","NORAD_CAT_ID":34946,"ELEMENT_SET_NO":999,"REV_AT_EPOCH":89339,"BSTAR":0.0005894539,"MEAN_MOTION_DOT":3.016e-5,"MEAN_MOTION_DDOT":0},{"OBJECT_NAME":"COSMOS 2251 DEB","OBJECT_ID":"1993-036AEC","EPOCH":"2026-02-28T09:37:11.534880","MEAN_MOTION":14.74531253,"ECCENTRICITY":0.00773559,"INCLINATION":74.019,"RA_OF_ASC_NODE":317.8773,"ARG_OF_PERICENTER":83.5544,"MEAN_ANOMALY":277.443,"EPHEMERIS_TYPE":0,"CLASSIFICATION_TYPE":"U","NORAD_CAT_ID":34949,"ELEMENT_SET_NO":999,"REV_AT_EPOCH":89506,"BSTAR":0.00042757878,"MEAN_MOTION_DOT":2.952e-5,"MEAN_MOTION_DDOT":0},{"OBJECT_NAME":"COSMOS 2251 DEB","OBJECT_ID":"1993-036AEG","EPOCH":"2026-03-03T21:17:16.474272","MEAN_MOTION":14.69995495,"ECCENTRICITY":0.0056856,"INCLINATION":74.0901,"RA_OF_ASC_NODE":230.8061,"ARG_OF_PERICENTER":203.3192,"MEAN_ANOMALY":310.6164,"EPHEMERIS_TYPE":0,"CLASSIFICATION_TYPE":"U","NORAD_CAT_ID":34953,"ELEMENT_SET_NO":999,"REV_AT_EPOCH":89320,"BSTAR":0.0013348,"MEAN_MOTION_DOT":8.183e-5,"MEAN_MOTION_DDOT":0},{"OBJECT_NAME":"COSMOS 2251 DEB","OBJECT_ID":"1993-036AEJ","EPOCH":"2026-02-25T18:43:40.534464","MEAN_MOTION":15.02261381,"ECCENTRICITY":0.00722267,"INCLINATION":74.035,"RA_OF_ASC_NODE":93.6554,"ARG_OF_PERICENTER":145.6439,"MEAN_ANOMALY":214.9452,"EPHEMERIS_TYPE":0,"CLASSIFICATION_TYPE":"U","NORAD_CAT_ID":34955,"ELEMENT_SET_NO":999,"REV_AT_EPOCH":91160,"BSTAR":0.00048245529,"MEAN_MOTION_DOT":6.7e-5,"MEAN_MOTION_DDOT":0},{"OBJECT_NAME":"COSMOS 2251 DEB","OBJECT_ID":"1993-036AER","EPOCH":"2026-03-03T21:44:54.406464","MEAN_MOTION":14.46842261,"ECCENTRICITY":0.0017076,"INCLINATION":74.0296,"RA_OF_ASC_NODE":41.703,"ARG_OF_PERICENTER":143.2939,"MEAN_ANOMALY":216.9393,"EPHEMERIS_TYPE":0,"CLASSIFICATION_TYPE":"U","NORAD_CAT_ID":34962,"ELEMENT_SET_NO":999,"REV_AT_EPOCH":88752,"BSTAR":0.00062736,"MEAN_MOTION_DOT":2.252e-5,"MEAN_MOTION_DDOT":0},{"OBJECT_NAME":"COSMOS 2251 DEB","OBJECT_ID":"1993-036AES","EPOCH":"2026-02-27T05:52:18.173856","MEAN_MOTION":14.51927779,"ECCENTRICITY":0.0041035,"INCLINATION":74.1684,"RA_OF_ASC_NODE":259.9025,"ARG_OF_PERICENTER":72.0297,"MEAN_ANOMALY":288.5332,"EPHEMERIS_TYPE":0,"CLASSIFICATION_TYPE":"U","NORAD_CAT_ID":34963,"ELEMENT_SET_NO":999,"REV_AT_EPOCH":87911,"BSTAR":0.0010482,"MEAN_MOTION_DOT":4.25e-5,"MEAN_MOTION_DDOT":0},{"OBJECT_NAME":"COSMOS 2251 DEB","OBJECT_ID":"1993-036AET","EPOCH":"2026-03-02T01:57:53.268192","MEAN_MOTION":14.00978422,"ECCENTRICITY":0.02102926,"INCLINATION":73.9689,"RA_OF_ASC_NODE":209.7047,"ARG_OF_PERICENTER":50.3303,"MEAN_ANOMALY":311.6169,"EPHEMERIS_TYPE":0,"CLASSIFICATION_TYPE":"U","NORAD_CAT_ID":34964,"ELEMENT_SET_NO":999,"REV_AT_EPOCH":85589,"BSTAR":0.0014172278,"MEAN_MOTION_DOT":2.549e-5,"MEAN_MOTION_DDOT":0},{"OBJECT_NAME":"COSMOS 2251 DEB","OBJECT_ID":"1993-036AEU","EPOCH":"2026-03-03T04:01:19.838208","MEAN_MOTION":14.48931881,"ECCENTRICITY":0.00242585,"INCLINATION":74.0541,"RA_OF_ASC_NODE":337.8704,"ARG_OF_PERICENTER":84.7044,"MEAN_ANOMALY":275.6883,"EPHEMERIS_TYPE":0,"CLASSIFICATION_TYPE":"U","NORAD_CAT_ID":34965,"ELEMENT_SET_NO":999,"REV_AT_EPOCH":88278,"BSTAR":0.00033751388,"MEAN_MOTION_DOT":1.256e-5,"MEAN_MOTION_DDOT":0},{"OBJECT_NAME":"COSMOS 2251 DEB","OBJECT_ID":"1993-036AEW","EPOCH":"2026-02-26T10:34:30.069984","MEAN_MOTION":14.44660564,"ECCENTRICITY":0.0041714,"INCLINATION":73.9926,"RA_OF_ASC_NODE":112.6011,"ARG_OF_PERICENTER":244.3813,"MEAN_ANOMALY":115.3031,"EPHEMERIS_TYPE":0,"CLASSIFICATION_TYPE":"U","NORAD_CAT_ID":34967,"ELEMENT_SET_NO":999,"REV_AT_EPOCH":66050,"BSTAR":0.0005005,"MEAN_MOTION_DOT":1.725e-5,"MEAN_MOTION_DDOT":0},{"OBJECT_NAME":"COSMOS 2251 DEB","OBJECT_ID":"1993-036AEX","EPOCH":"2026-03-04T11:24:43.276896","MEAN_MOTION":14.59564426,"ECCENTRICITY":0.00870083,"INCLINATION":74.0367,"RA_OF_ASC_NODE":91.2426,"ARG_OF_PERICENTER":192.6762,"MEAN_ANOMALY":167.2217,"EPHEMERIS_TYPE":0,"CLASSIFICATION_TYPE":"U","NORAD_CAT_ID":34968,"ELEMENT_SET_NO":999,"REV_AT_EPOCH":89670,"BSTAR":0.00017866319,"MEAN_MOTION_DOT":8.63e-6,"MEAN_MOTION_DDOT":0},{"OBJECT_NAME":"COSMOS 2251 DEB","OBJECT_ID":"1993-036AEY","EPOCH":"2026-02-23T21:06:10.920384","MEAN_MOTION":14.32401751,"ECCENTRICITY":0.00742504,"INCLINATION":74.0115,"RA_OF_ASC_NODE":249.4806,"ARG_OF_PERICENTER":3.6645,"MEAN_ANOMALY":356.5033,"EPHEMERIS_TYPE":0,"CLASSIFICATION_TYPE":"U","NORAD_CAT_ID":34969,"ELEMENT_SET_NO":999,"REV_AT_EPOCH":66184,"BSTAR":0.0002299142,"MEAN_MOTION_DOT":6.15e-6,"MEAN_MOTION_DDOT":0},{"OBJECT_NAME":"COSMOS 2251 DEB","OBJECT_ID":"1993-036AFA","EPOCH":"2026-03-03T20:58:48.168768","MEAN_MOTION":14.5578441,"ECCENTRICITY":0.0070795,"INCLINATION":73.978,"RA_OF_ASC_NODE":130.7059,"ARG_OF_PERICENTER":335.0871,"MEAN_ANOMALY":147.9916,"EPHEMERIS_TYPE":0,"CLASSIFICATION_TYPE":"U","NORAD_CAT_ID":34971,"ELEMENT_SET_NO":999,"REV_AT_EPOCH":67353,"BSTAR":0.00021137,"MEAN_MOTION_DOT":9.26e-6,"MEAN_MOTION_DDOT":0},{"OBJECT_NAME":"COSMOS 2251 DEB","OBJECT_ID":"1993-036AFB","EPOCH":"2026-03-04T12:14:29.533920","MEAN_MOTION":14.74778836,"ECCENTRICITY":0.00332765,"INCLINATION":73.9845,"RA_OF_ASC_NODE":249.8732,"ARG_OF_PERICENTER":24.2844,"MEAN_ANOMALY":6.9646,"EPHEMERIS_TYPE":0,"CLASSIFICATION_TYPE":"U","NORAD_CAT_ID":34972,"ELEMENT_SET_NO":999,"REV_AT_EPOCH":88855,"BSTAR":0.0021933239,"MEAN_MOTION_DOT":0.00014811,"MEAN_MOTION_DDOT":0}]
