COSMOS 2251 DEB         
1 34918U 93036ADP 26058.73686052  .00007608  00000+0  14931-2 0  9994
2 34918  74.0710 166.5626 0026893 113.3417  37.3040 14.62624432664610
COSMOS 2251 DEB         
1 34924U 93036ADV 26063.45629712  .00004983  00000+0  10047-2 0  9993
2 34924  74.0396 293.4452 0053897 355.4787  63.9305 14.60816772889163
COSMOS 2251 DEB         
1 34944U 93036ADX 26063.46936562  .00001867  00000+0  78100-3 0  9993
2 34944  73.7461  84.5569 0222519 278.7571  78.8427 14.14407816652385
COSMOS 2251 DEB         
1 34946U 93036ADZ 26059.06138575  .00003016  00000+0  58945-3 0  9997
2 34946  74.0228 193.9066 0051718 310.6161  49.0512 14.62511817893394
COSMOS 2251 DEB         
1 34949U 93036AEC 26059.40082795  .00002952  00000+0  42758-3 0  9993
2 34949  74.0190 317.8773 0077355  83.5544 277.4430 14.74531253895064
COSMOS 2251 DEB         
1 34953U 93036AEG 26062.88699623  .00008183  00000+0  13348-2 0  9992
2 34953  74.0901 230.8061 0056856 203.3192 310.6164 14.69995495893201
COSMOS 2251 DEB         
1 34955U 93036AEJ 26056.78033026  .00006700  00000+0  48246-3 0  9994
2 34955  74.0350  93.6554 0072226 145.6439 214.9452 15.02261381911603
COSMOS 2251 DEB         
1 34962U 93036AER 26062.90618526  .00002252  00000+0  62736-3 0  9995
2 34962  74.0296  41.7030 0017076 143.2939 216.9393 14.46842261887522
COSMOS 2251 DEB         
1 34963U 93036AES 26058.24465479  .00004250  00000+0  10482-2 0  9995
2 34963  74.1684 259.9025 0041035  72.0297 288.5332 14.51927779879118
COSMOS 2251 DEB         
1 34964U 93036AET 26061.08186653  .00002549  00000+0  14172-2 0  9995
2 34964  73.9689 209.7047 0210292  50.3303 311.6169 14.00978422855898
COSMOS 2251 DEB         
1 34965U 93036AEU 26062.16759072  .00001256  00000+0  33751-3 0  9996
2 34965  74.0541 337.8704 0024258  84.7044 275.6883 14.48931881882789
COSMOS 2251 DEB         
1 34967U 93036AEW 26057.44062581  .00001725  00000+0  50050-3 0  9997
2 34967  73.9926 112.6011 0041714 244.3813 115.3031 14.44660564660502
COSMOS 2251 DEB         
1 34968U 93036AEX 26063.47550089  .00000863  00000+0  17866-3 0  9993
2 34968  74.0367  91.2426 0087008 192.6762 167.2217 14.59564426896701
COSMOS 2251 DEB         
1 34969U 93036AEY 26054.87929306  .00000615  00000+0  22991-3 0  9990
2 34969  74.0115 249.4806 0074250   3.6645 356.5033 14.32401751661844
COSMOS 2251 DEB         
1 34971U 93036AFA 26062.87416862  .00000926  00000+0  21137-3 0  9996
2 34971  73.9780 130.7059 0070795 335.0871 147.9916 14.55784410673530
COSMOS 2251 DEB         
1 34972U 93036AFB 26063.51006405  .00014811  00000+0  21933-2 0  9998
2 34972  73.9845 249.8732 0033276  24.2844   6.9646 14.74778836888553
